{
  "type": "FeatureCollection",
  "features": [
    {
      "type": "Feature",
      "properties": {
        "norad_id": 34056,
        "name": "COSMOS 2251 DEB",
        "group": "cosmos-2251-debris",
        "lat": 5.923918130265849,
        "lon": 91.19387985631252,
        "alt_km": 885.9953746125602,
        "timestamp": "2025-12-05T09:41:19.525915+00:00",
        "meta_object_name": "COSMOS 2251 DEB",
        "meta_object_id": "1993-036JT",
        "meta_epoch": "2025-12-04T17:17:55.568256",
        "meta_mean_motion": 14.20497779,
        "meta_eccentricity": 0.0124612,
        "meta_inclination": 74.0598,
        "meta_ra_of_asc_node": 90.715,
        "meta_arg_of_pericenter": 140.627,
        "meta_mean_anomaly": 335.783,
        "meta_ephemeris_type": 0,
        "meta_classification_type": "U",
        "meta_norad_cat_id": 34056,
        "meta_element_set_no": 999,
        "meta_rev_at_epoch": 86297,
        "meta_bstar": 0.0029678,
        "meta_mean_motion_dot": 6.872e-05,
        "meta_mean_motion_ddot": 0,
        "tle_line1": "1 34056U 93036JT  25338.72078204  .00006872  00000+0  29678-2 0  9996",
        "tle_line2": "2 34056  74.0598  90.7150 0124612 140.6270 335.7830 14.20497779862972"
      },
      "geometry": {
        "type": "Point",
        "coordinates": [
          91.19387985631252,
          5.923918130265849
        ]
      }
    },
    {
      "type": "Feature",
      "properties": {
        "norad_id": 34058,
        "name": "COSMOS 2251 DEB",
        "group": "cosmos-2251-debris",
        "lat": 52.597572792349126,
        "lon": -147.85358667870216,
        "alt_km": 1222.2075120570498,
        "timestamp": "2025-12-05T09:41:19.525926+00:00",
        "meta_object_name": "COSMOS 2251 DEB",
        "meta_object_id": "1993-036JV",
        "meta_epoch": "2025-12-04T15:59:50.605152",
        "meta_mean_motion": 13.56059445,
        "meta_eccentricity": 0.0378286,
        "meta_inclination": 73.9322,
        "meta_ra_of_asc_node": 191.1981,
        "meta_arg_of_pericenter": 187.9733,
        "meta_mean_anomaly": 233.9397,
        "meta_ephemeris_type": 0,
        "meta_classification_type": "U",
        "meta_norad_cat_id": 34058,
        "meta_element_set_no": 999,
        "meta_rev_at_epoch": 83033,
        "meta_bstar": 0.00084989,
        "meta_mean_motion_dot": 9.22e-06,
        "meta_mean_motion_ddot": 0,
        "tle_line1": "1 34058U 93036JV  25338.66655793  .00000922  00000+0  84989-3 0  9992",
        "tle_line2": "2 34058  73.9322 191.1981 0378286 187.9733 233.9397 13.56059445830335"
      },
      "geometry": {
        "type": "Point",
        "coordinates": [
          -147.85358667870216,
          52.597572792349126
        ]
      }
    },
    {
      "type": "Feature",
      "properties": {
        "norad_id": 34059,
        "name": "COSMOS 2251 DEB",
        "group": "cosmos-2251-debris",
        "lat": -60.166246978169276,
        "lon": 50.05390751641453,
        "alt_km": 711.9347951040136,
        "timestamp": "2025-12-05T09:41:19.525937+00:00",
        "meta_object_name": "COSMOS 2251 DEB",
        "meta_object_id": "1993-036JW",
        "meta_epoch": "2025-12-04T16:17:53.890944",
        "meta_mean_motion": 14.52874928,
        "meta_eccentricity": 0.0018782,
        "meta_inclination": 74.0381,
        "meta_ra_of_asc_node": 201.4813,
        "meta_arg_of_pericenter": 279.6039,
        "meta_mean_anomaly": 136.5363,
        "meta_ephemeris_type": 0,
        "meta_classification_type": "U",
        "meta_norad_cat_id": 34059,
        "meta_element_set_no": 999,
        "meta_rev_at_epoch": 88342,
        "meta_bstar": 0.0015328,
        "meta_mean_motion_dot": 6.3e-05,
        "meta_mean_motion_ddot": 0,
        "tle_line1": "1 34059U 93036JW  25338.67909596  .00006300  00000+0  15328-2 0  9993",
        "tle_line2": "2 34059  74.0381 201.4813 0018782 279.6039 136.5363 14.52874928883429"
      },
      "geometry": {
        "type": "Point",
        "coordinates": [
          50.05390751641453,
          -60.166246978169276
        ]
      }
    },
    {
      "type": "Feature",
      "properties": {
        "norad_id": 34061,
        "name": "COSMOS 2251 DEB",
        "group": "cosmos-2251-debris",
        "lat": -22.230771320024175,
        "lon": 103.66700369349974,
        "alt_km": 775.1065101005088,
        "timestamp": "2025-12-05T09:41:19.525947+00:00",
        "meta_object_name": "COSMOS 2251 DEB",
        "meta_object_id": "1993-036JY",
        "meta_epoch": "2025-12-04T06:46:08.896224",
        "meta_mean_motion": 14.40327442,
        "meta_eccentricity": 0.002017,
        "meta_inclination": 74.0391,
        "meta_ra_of_asc_node": 279.022,
        "meta_arg_of_pericenter": 357.388,
        "meta_mean_anomaly": 152.1631,
        "meta_ephemeris_type": 0,
        "meta_classification_type": "U",
        "meta_norad_cat_id": 34061,
        "meta_element_set_no": 999,
        "meta_rev_at_epoch": 88058,
        "meta_bstar": 0.00072157,
        "meta_mean_motion_dot": 2.267e-05,
        "meta_mean_motion_ddot": 0,
        "tle_line1": "1 34061U 93036JY  25338.28204741  .00002267  00000+0  72157-3 0  9995",
        "tle_line2": "2 34061  74.0391 279.0220 0020170 357.3880 152.1631 14.40327442880585"
      },
      "geometry": {
        "type": "Point",
        "coordinates": [
          103.66700369349974,
          -22.230771320024175
        ]
      }
    },
    {
      "type": "Feature",
      "properties": {
        "norad_id": 34062,
        "name": "COSMOS 2251 DEB",
        "group": "cosmos-2251-debris",
        "lat": 36.95153546435824,
        "lon": 164.9014000543153,
        "alt_km": 683.6811755465587,
        "timestamp": "2025-12-05T09:41:19.525958+00:00",
        "meta_object_name": "COSMOS 2251 DEB",
        "meta_object_id": "1993-036JZ",
        "meta_epoch": "2025-12-04T14:22:04.281888",
        "meta_mean_motion": 14.78158581,
        "meta_eccentricity": 0.007611,
        "meta_inclination": 74.0268,
        "meta_ra_of_asc_node": 154.0403,
        "meta_arg_of_pericenter": 234.6433,
        "meta_mean_anomaly": 201.7217,
        "meta_ephemeris_type": 0,
        "meta_classification_type": "U",
        "meta_norad_cat_id": 34062,
        "meta_element_set_no": 999,
        "meta_rev_at_epoch": 88475,
        "meta_bstar": 0.0055712,
        "meta_mean_motion_dot": 0.00042578,
        "meta_mean_motion_ddot": 0,
        "tle_line1": "1 34062U 93036JZ  25338.59866067  .00042578  00000+0  55712-2 0  9991",
        "tle_line2": "2 34062  74.0268 154.0403 0076110 234.6433 201.7217 14.78158581884751"
      },
      "geometry": {
        "type": "Point",
        "coordinates": [
          164.9014000543153,
          36.95153546435824
        ]
      }
    },
    {
      "type": "Feature",
      "properties": {
        "norad_id": 34064,
        "name": "COSMOS 2251 DEB",
        "group": "cosmos-2251-debris",
        "lat": 52.0189165452847,
        "lon": 82.9648792693116,
        "alt_km": 756.344488156009,
        "timestamp": "2025-12-05T09:41:19.525969+00:00",
        "meta_object_name": "COSMOS 2251 DEB",
        "meta_object_id": "1993-036KB",
        "meta_epoch": "2025-12-03T07:52:30.877824",
        "meta_mean_motion": 14.42279449,
        "meta_eccentricity": 0.0021788,
        "meta_inclination": 74.0325,
        "meta_ra_of_asc_node": 288.3269,
        "meta_arg_of_pericenter": 356.1066,
        "meta_mean_anomaly": 156.1404,
        "meta_ephemeris_type": 0,
        "meta_classification_type": "U",
        "meta_norad_cat_id": 34064,
        "meta_element_set_no": 999,
        "meta_rev_at_epoch": 88006,
        "meta_bstar": 0.00084902,
        "meta_mean_motion_dot": 2.784e-05,
        "meta_mean_motion_ddot": 0,
        "tle_line1": "1 34064U 93036KB  25337.32813516  .00002784  00000+0  84902-3 0  9993",
        "tle_line2": "2 34064  74.0325 288.3269 0021788 356.1066 156.1404 14.42279449880060"
      },
      "geometry": {
        "type": "Point",
        "coordinates": [
          82.9648792693116,
          52.0189165452847
        ]
      }
    },
    {
      "type": "Feature",
      "properties": {
        "norad_id": 34065,
        "name": "COSMOS 2251 DEB",
        "group": "cosmos-2251-debris",
        "lat": -64.80961860757367,
        "lon": 129.12162653679792,
        "alt_km": 777.6095584972272,
        "timestamp": "2025-12-05T09:41:19.525979+00:00",
        "meta_object_name": "COSMOS 2251 DEB",
        "meta_object_id": "1993-036KC",
        "meta_epoch": "2025-12-04T06:21:22.170816",
        "meta_mean_motion": 14.38048001,
        "meta_eccentricity": 0.0015969,
        "meta_inclination": 74.0356,
        "meta_ra_of_asc_node": 273.7305,
        "meta_arg_of_pericenter": 13.209,
        "meta_mean_anomaly": 103.6998,
        "meta_ephemeris_type": 0,
        "meta_classification_type": "U",
        "meta_norad_cat_id": 34065,
        "meta_element_set_no": 999,
        "meta_rev_at_epoch": 88083,
        "meta_bstar": 0.00034132,
        "meta_mean_motion_dot": 1.009e-05,
        "meta_mean_motion_ddot": 0,
        "tle_line1": "1 34065U 93036KC  25338.26483994  .00001009  00000+0  34132-3 0  9990",
        "tle_line2": "2 34065  74.0356 273.7305 0015969  13.2090 103.6998 14.38048001880839"
      },
      "geometry": {
        "type": "Point",
        "coordinates": [
          129.12162653679792,
          -64.80961860757367
        ]
      }
    }
  ]
}